<?xml version="1.0" encoding="UTF-8"?>
<kml xmlns="http://www.opengis.net/kml/2.2"><Document>
<name>JYR8010 EFHW - every wire, ranked by NEC-2</name>
<Style id="w"><LineStyle><color>ff00d7ff</color><width>4</width></LineStyle></Style>
<Folder><name>#1 NR-SL1</name><Placemark><name>NR-SL1</name><styleUrl>#w</styleUrl><description><![CDATA[#1 on NEC 40+20+15 m: 52/75 cells, +2.37 dBi, worst -9.5<br/>NEC 40+20 m: #1, 35/50<br/>Analytic (old): #62, 43/75<br/>Sloper up from the roof (25 ft) to a 69 ft support 122 ft out at 150°M · NEC search<br/>tree top 81 ft past the south line]]></description><LineString><altitudeMode>relativeToGround</altitudeMode><coordinates>-121.99673405,47.63396389,7.62 -121.99660576,47.63364028,21.03</coordinates></LineString></Placemark></Folder>
<Folder><name>#2 NR-SL2</name><Placemark><name>NR-SL2</name><styleUrl>#w</styleUrl><description><![CDATA[#2 on NEC 40+20+15 m: 49/75 cells, +2.73 dBi, worst -12.8<br/>NEC 40+20 m: #10, 28/50<br/>Analytic (old): #82, 37/75<br/>Sloper up from the roof (25 ft) to a 62 ft support 125 ft out at 60°M · NEC search<br/>on the lot]]></description><LineString><altitudeMode>relativeToGround</altitudeMode><coordinates>-121.99673405,47.63396389,7.62 -121.99624563,47.63405235,18.90</coordinates></LineString></Placemark></Folder>
<Folder><name>#3 NR-SL3</name><Placemark><name>NR-SL3</name><styleUrl>#w</styleUrl><description><![CDATA[#3 on NEC 40+20+15 m: 49/75 cells, +2.61 dBi, worst -11.8<br/>NEC 40+20 m: #4, 31/50<br/>Analytic (old): #51, 46/75<br/>Sloper up from the roof (25 ft) to a 71 ft support 121 ft out at 260°M · NEC search<br/>on the lot, inside the 5 m setback]]></description><LineString><altitudeMode>relativeToGround</altitudeMode><coordinates>-121.99673405,47.63396389,7.62 -121.99722451,47.63399290,21.64</coordinates></LineString></Placemark></Folder>
<Folder><name>#4 NR2-SL2</name><Placemark><name>NR2-SL2</name><styleUrl>#w</styleUrl><description><![CDATA[#4 on NEC 40+20+15 m: 49/75 cells, +2.47 dBi, worst -16.9<br/>NEC 40+20 m: #2, 35/50<br/>Analytic (old): #61, 43/75<br/>Sloper up from the roof (25 ft) to a 71 ft support 121 ft out at 255°M · NEC search, 40+20 m<br/>on the lot, inside the 5 m setback]]></description><LineString><altitudeMode>relativeToGround</altitudeMode><coordinates>-121.99673405,47.63396389,7.62 -121.99722638,47.63396389,21.64</coordinates></LineString></Placemark></Folder>
<Folder><name>#5 NR-SL4</name><Placemark><name>NR-SL4</name><styleUrl>#w</styleUrl><description><![CDATA[#5 on NEC 40+20+15 m: 48/75 cells, +2.43 dBi, worst -11.4<br/>NEC 40+20 m: #8, 29/50<br/>Analytic (old): #68, 41/75<br/>Sloper up from the roof (25 ft) to a 62 ft support 125 ft out at 242°M · NEC search<br/>tree top 23 ft past the south line]]></description><LineString><altitudeMode>relativeToGround</altitudeMode><coordinates>-121.99673405,47.63396389,7.62 -121.99722770,47.63388992,18.90</coordinates></LineString></Placemark></Folder>
<Folder><name>#6 NR-SL5</name><Placemark><name>NR-SL5</name><styleUrl>#w</styleUrl><description><![CDATA[#6 on NEC 40+20+15 m: 48/75 cells, +2.37 dBi, worst -15.4<br/>NEC 40+20 m: #6, 29/50<br/>Analytic (old): #77, 38/75<br/>Sloper up from the roof (25 ft) to a 75 ft support 120 ft out at 125°M · NEC search<br/>tree top 45 ft past the south line]]></description><LineString><altitudeMode>relativeToGround</altitudeMode><coordinates>-121.99673405,47.63396389,7.62 -121.99642185,47.63371241,22.86</coordinates></LineString></Placemark></Folder>
<Folder><name>#7 NR-SL6</name><Placemark><name>NR-SL6</name><styleUrl>#w</styleUrl><description><![CDATA[#7 on NEC 40+20+15 m: 47/75 cells, +2.32 dBi, worst -7.0<br/>NEC 40+20 m: #11, 28/50<br/>Analytic (old): #88, 32/75<br/>Sloper up from the roof (25 ft) to a 62 ft support 125 ft out at 80°M · NEC search<br/>on the lot]]></description><LineString><altitudeMode>relativeToGround</altitudeMode><coordinates>-121.99673405,47.63396389,7.62 -121.99623033,47.63393411,18.90</coordinates></LineString></Placemark></Folder>
<Folder><name>#8 NR2-SL3</name><Placemark><name>NR2-SL3</name><styleUrl>#w</styleUrl><description><![CDATA[#8 on NEC 40+20+15 m: 47/75 cells, +2.08 dBi, worst -9.0<br/>NEC 40+20 m: #3, 33/50<br/>Analytic (old): #66, 42/75<br/>Sloper up from the roof (25 ft) to a 84 ft support 116 ft out at 132°M · NEC search, 40+20 m<br/>tree top 54 ft past the south line]]></description><LineString><altitudeMode>relativeToGround</altitudeMode><coordinates>-121.99673405,47.63396389,7.62 -121.99648202,47.63369650,25.60</coordinates></LineString></Placemark></Folder>
<Folder><name>#9 N-SL1</name><Placemark><name>N-SL1</name><styleUrl>#w</styleUrl><description><![CDATA[#9 on NEC 40+20+15 m: 41/75 cells, +1.16 dBi, worst -11.4<br/>NEC 40+20 m: #5, 30/50<br/>Analytic (old): #71, 40/75<br/>Sloper up from the transformer (10 ft) to a 68 ft support 116 ft out at 145°M · NEC search<br/>tree top 29 ft past the south line]]></description><LineString><altitudeMode>relativeToGround</altitudeMode><coordinates>-121.99659167,47.63405833,3.05 -121.99643034,47.63375874,20.70</coordinates></LineString></Placemark></Folder>
<Folder><name>#10 S4</name><Placemark><name>S4</name><styleUrl>#w</styleUrl><description><![CDATA[#10 on NEC 40+20+15 m: 40/75 cells, +2.49 dBi, worst -9.6<br/>NEC 40+20 m: #14, 26/50<br/>Analytic (old): #89, 32/75<br/>Straight sloper to a 50 ft tree, feed 24 ft, over the LAWN, bearing 83T<br/>on the lot]]></description><LineString><altitudeMode>relativeToGround</altitudeMode><coordinates>-121.99659167,47.63405833,7.32 -121.99607924,47.63410086,15.24</coordinates></LineString></Placemark></Folder>
<Folder><name>#11 N-SL2</name><Placemark><name>N-SL2</name><styleUrl>#w</styleUrl><description><![CDATA[#11 on NEC 40+20+15 m: 39/75 cells, +1.25 dBi, worst -11.9<br/>NEC 40+20 m: #12, 28/50<br/>Analytic (old): #76, 38/75<br/>Sloper up from the transformer (10 ft) to a 60 ft support 120 ft out at 250°M · NEC search<br/>on the lot]]></description><LineString><altitudeMode>relativeToGround</altitudeMode><coordinates>-121.99659167,47.63405833,3.05 -121.99707550,47.63402972,18.29</coordinates></LineString></Placemark></Folder>
<Folder><name>#12 NR-V1</name><Placemark><name>NR-V1</name><styleUrl>#w</styleUrl><description><![CDATA[#12 on NEC 40+20+15 m: 38/75 cells, +1.05 dBi, worst -12.1<br/>NEC 40+20 m: #29, 21/50<br/>Analytic (old): #65, 42/75<br/>Inverted-V from the roof, apex 50 ft 57 ft out at 279°M, second leg to 325°M · NEC search<br/>on the lot]]></description><LineString><altitudeMode>relativeToGround</altitudeMode><coordinates>-121.99673405,47.63396389,7.62 -121.99694580,47.63402826,15.24 -121.99702115,47.63416817,3.05</coordinates></LineString></Placemark></Folder>
<Folder><name>#13 NR-L1</name><Placemark><name>NR-L1</name><styleUrl>#w</styleUrl><description><![CDATA[#13 on NEC 40+20+15 m: 38/75 cells, +1.02 dBi, worst -15.2<br/>NEC 40+20 m: #34, 18/50<br/>Analytic (old): #19, 51/75<br/>Inverted-L from the roof, rising to 56 ft 78 ft out at 41°M, then 46 ft hanging down · NEC search<br/>on the lot]]></description><LineString><altitudeMode>relativeToGround</altitudeMode><coordinates>-121.99673405,47.63396389,7.62 -121.99647078,47.63408082,17.07 -121.99647078,47.63408082,2.96</coordinates></LineString></Placemark></Folder>
<Folder><name>#14 T30</name><Placemark><name>T30</name><styleUrl>#w</styleUrl><description><![CDATA[#14 on NEC 40+20+15 m: 38/75 cells, +1.08 dBi, worst -9.3<br/>NEC 40+20 m: #7, 29/50<br/>Analytic (old): #34, 49/75<br/>Tall sloper, 30 deg slope, top 89 ft, bearing 176T<br/>tree top 39 ft past the south line]]></description><LineString><altitudeMode>relativeToGround</altitudeMode><coordinates>-121.99659167,47.63405833,7.32 -121.99655984,47.63375063,27.13</coordinates></LineString></Placemark></Folder>
<Folder><name>#15 N-SL3</name><Placemark><name>N-SL3</name><styleUrl>#w</styleUrl><description><![CDATA[#15 on NEC 40+20+15 m: 38/75 cells, +1.71 dBi, worst -13.1<br/>NEC 40+20 m: #28, 22/50<br/>Analytic (old): #93, 27/75<br/>Sloper up from the transformer (10 ft) to a 47 ft support 125 ft out at 270°M · NEC search<br/>on the lot]]></description><LineString><altitudeMode>relativeToGround</altitudeMode><coordinates>-121.99659167,47.63405833,3.05 -121.99708008,47.63414679,14.33</coordinates></LineString></Placemark></Folder>
<Folder><name>#16 N-F10A</name><Placemark><name>N-F10A</name><styleUrl>#w</styleUrl><description><![CDATA[#16 on NEC 40+20+15 m: 37/75 cells, +1.25 dBi, worst -11.2<br/>NEC 40+20 m: #15, 25/50<br/>Analytic (old): #85, 35/75<br/>F10-A, leg 2 re-aimed on NEC to 60°M<br/>on the lot]]></description><LineString><altitudeMode>relativeToGround</altitudeMode><coordinates>-121.99659167,47.63405833,3.05 -121.99638056,47.63407778,15.24 -121.99625749,47.63410007,15.24 -121.99615722,47.63411823,9.14</coordinates></LineString></Placemark></Folder>
<Folder><name>#17 R-SL2</name><Placemark><name>R-SL2</name><styleUrl>#w</styleUrl><description><![CDATA[#17 on NEC 40+20+15 m: 37/75 cells, +0.71 dBi, worst -7.3<br/>NEC 40+20 m: #13, 27/50<br/>Analytic (old): #26, 50/75<br/>Sloper up from the roof (25 ft) to a 97 ft support 108 ft out at 163°M<br/>tree top 78 ft past the south line]]></description><LineString><altitudeMode>relativeToGround</altitudeMode><coordinates>-121.99673405,47.63396389,7.62 -121.99671872,47.63366727,29.57</coordinates></LineString></Placemark></Folder>
<Folder><name>#18 NR-V2</name><Placemark><name>NR-V2</name><styleUrl>#w</styleUrl><description><![CDATA[#18 on NEC 40+20+15 m: 36/75 cells, +0.61 dBi, worst -12.3<br/>NEC 40+20 m: #23, 22/50<br/>Analytic (old): #69, 41/75<br/>Inverted-V from the roof, apex 50 ft 59 ft out at 85°M, second leg to 67°M · NEC search<br/>on the lot]]></description><LineString><altitudeMode>relativeToGround</altitudeMode><coordinates>-121.99673405,47.63396389,7.62 -121.99649816,47.63393578,15.24 -121.99628812,47.63395448,3.05</coordinates></LineString></Placemark></Folder>
<Folder><name>#19 NR-L2</name><Placemark><name>NR-L2</name><styleUrl>#w</styleUrl><description><![CDATA[#19 on NEC 40+20+15 m: 36/75 cells, +1.20 dBi, worst -15.8<br/>NEC 40+20 m: #24, 22/50<br/>Analytic (old): #12, 54/75<br/>Inverted-L from the roof, rising to 69 ft 85 ft out at 55°M, then 34 ft hanging down · NEC search<br/>on the lot]]></description><LineString><altitudeMode>relativeToGround</altitudeMode><coordinates>-121.99673405,47.63396389,7.62 -121.99640894,47.63404388,21.03 -121.99640894,47.63404388,10.67</coordinates></LineString></Placemark></Folder>
<Folder><name>#20 NR-V3</name><Placemark><name>NR-V3</name><styleUrl>#w</styleUrl><description><![CDATA[#20 on NEC 40+20+15 m: 36/75 cells, +0.94 dBi, worst -11.1<br/>NEC 40+20 m: #26, 22/50<br/>Analytic (old): #59, 44/75<br/>Inverted-V from the roof, apex 50 ft 57 ft out at 320°M, second leg to 290°M · NEC search<br/>on the lot]]></description><LineString><altitudeMode>relativeToGround</altitudeMode><coordinates>-121.99673405,47.63396389,7.62 -121.99682927,47.63410703,15.24 -121.99700972,47.63419244,3.05</coordinates></LineString></Placemark></Folder>
<Folder><name>#21 NR2-L2</name><Placemark><name>NR2-L2</name><styleUrl>#w</styleUrl><description><![CDATA[#21 on NEC 40+20+15 m: 36/75 cells, +1.14 dBi, worst -17.8<br/>NEC 40+20 m: #17, 24/50<br/>Analytic (old): #20, 51/75<br/>Inverted-L from the roof, rising to 73 ft 84 ft out at 47°M, then 33 ft hanging down · NEC search, 40+20 m<br/>on the lot]]></description><LineString><altitudeMode>relativeToGround</altitudeMode><coordinates>-121.99673405,47.63396389,7.62 -121.99643442,47.63407182,22.25 -121.99643442,47.63407182,12.06</coordinates></LineString></Placemark></Folder>
<Folder><name>#22 A</name><Placemark><name>A</name><styleUrl>#w</styleUrl><description><![CDATA[#22 on NEC 40+20+15 m: 35/75 cells, +1.58 dBi, worst -5.8<br/>NEC 40+20 m: #32, 19/50<br/>Analytic (old): #33, 49/75<br/>Bent flat-top, 2 tree supports (RECOMMENDED)<br/>on the lot]]></description><LineString><altitudeMode>relativeToGround</altitudeMode><coordinates>-121.99659167,47.63405833,7.32 -121.99638056,47.63407778,15.24 -121.99625992,47.63400936,15.24 -121.99618042,47.63396426,9.14</coordinates></LineString></Placemark></Folder>
<Folder><name>#23 NR-L3</name><Placemark><name>NR-L3</name><styleUrl>#w</styleUrl><description><![CDATA[#23 on NEC 40+20+15 m: 35/75 cells, +0.78 dBi, worst -8.3<br/>NEC 40+20 m: #52, 16/50<br/>Analytic (old): #17, 52/75<br/>Inverted-L from the roof, rising to 58 ft 75 ft out at 345°M, then 48 ft hanging down · NEC search<br/>on the lot]]></description><LineString><altitudeMode>relativeToGround</altitudeMode><coordinates>-121.99673405,47.63396389,7.62 -121.99673405,47.63417076,17.68 -121.99673405,47.63417076,3.18</coordinates></LineString></Placemark></Folder>
<Folder><name>#24 NR2-V1</name><Placemark><name>NR2-V1</name><styleUrl>#w</styleUrl><description><![CDATA[#24 on NEC 40+20+15 m: 35/75 cells, +0.61 dBi, worst -9.7<br/>NEC 40+20 m: #19, 24/50<br/>Analytic (old): #54, 46/75<br/>Inverted-V from the roof, apex 50 ft 55 ft out at 307°M, second leg to 337°M · NEC search, 40+20 m<br/>on the lot]]></description><LineString><altitudeMode>relativeToGround</altitudeMode><coordinates>-121.99673405,47.63396389,7.62 -121.99687090,47.63408313,15.24 -121.99690096,47.63423748,3.05</coordinates></LineString></Placemark></Folder>
<Folder><name>#25 NR-L4</name><Placemark><name>NR-L4</name><styleUrl>#w</styleUrl><description><![CDATA[#25 on NEC 40+20+15 m: 35/75 cells, +1.45 dBi, worst -7.1<br/>NEC 40+20 m: #18, 24/50<br/>Analytic (old): #4, 57/75<br/>Inverted-L from the roof, rising to 65 ft 89 ft out at 264°M, then 33 ft hanging down · NEC search<br/>on the lot]]></description><LineString><altitudeMode>relativeToGround</altitudeMode><coordinates>-121.99673405,47.63396389,7.62 -121.99708806,47.63400450,19.81 -121.99708806,47.63400450,9.82</coordinates></LineString></Placemark></Folder>
<Folder><name>#26 NR2-L1</name><Placemark><name>NR2-L1</name><styleUrl>#w</styleUrl><description><![CDATA[#26 on NEC 40+20+15 m: 35/75 cells, +1.30 dBi, worst -9.0<br/>NEC 40+20 m: #16, 24/50<br/>Analytic (old): #9, 55/75<br/>Inverted-L from the roof, rising to 71 ft 85 ft out at 265°M, then 33 ft hanging down · NEC search, 40+20 m<br/>on the lot]]></description><LineString><altitudeMode>relativeToGround</altitudeMode><coordinates>-121.99673405,47.63396389,7.62 -121.99707476,47.63400450,21.64 -121.99707476,47.63400450,11.58</coordinates></LineString></Placemark></Folder>
<Folder><name>#27 NR2-V2</name><Placemark><name>NR2-V2</name><styleUrl>#w</styleUrl><description><![CDATA[#27 on NEC 40+20+15 m: 34/75 cells, +0.46 dBi, worst -14.5<br/>NEC 40+20 m: #20, 23/50<br/>Analytic (old): #83, 37/75<br/>Inverted-V from the roof, apex 50 ft 52 ft out at 85°M, second leg to 70°M · NEC search, 40+20 m<br/>on the lot]]></description><LineString><altitudeMode>relativeToGround</altitudeMode><coordinates>-121.99673405,47.63396389,7.62 -121.99652438,47.63393891,15.24 -121.99628357,47.63395315,3.05</coordinates></LineString></Placemark></Folder>
<Folder><name>#28 NR2-V3</name><Placemark><name>NR2-V3</name><styleUrl>#w</styleUrl><description><![CDATA[#28 on NEC 40+20+15 m: 34/75 cells, +0.79 dBi, worst -10.4<br/>NEC 40+20 m: #22, 23/50<br/>Analytic (old): #49, 47/75<br/>Inverted-V from the roof, apex 50 ft 55 ft out at 351°M, second leg to 325°M · NEC search, 40+20 m<br/>on the lot]]></description><LineString><altitudeMode>relativeToGround</altitudeMode><coordinates>-121.99673405,47.63396389,7.62 -121.99671039,47.63411461,15.24 -121.99678879,47.63426023,3.05</coordinates></LineString></Placemark></Folder>
<Folder><name>#29 NR-DN1</name><Placemark><name>NR-DN1</name><styleUrl>#w</styleUrl><description><![CDATA[#29 on NEC 40+20+15 m: 34/75 cells, +1.65 dBi, worst -19.2<br/>NEC 40+20 m: #50, 17/50<br/>Analytic (old): #99, 21/75<br/>Sloper DOWN from the roof (25 ft) to a 21 ft end 130 ft out at 307°M · NEC search<br/>on the lot]]></description><LineString><altitudeMode>relativeToGround</altitudeMode><coordinates>-121.99673405,47.63396389,7.62 -121.99705466,47.63424632,6.40</coordinates></LineString></Placemark></Folder>
<Folder><name>#30 W-F10A</name><Placemark><name>W-F10A</name><styleUrl>#w</styleUrl><description><![CDATA[#30 on NEC 40+20+15 m: 33/75 cells, +0.99 dBi, worst -15.9<br/>NEC 40+20 m: #30, 20/50<br/>Analytic (old): #10, 54/75<br/>F10-A with leg 2 re-aimed to 20°M for 40+20 m<br/>on the lot]]></description><LineString><altitudeMode>relativeToGround</altitudeMode><coordinates>-121.99659167,47.63405833,3.05 -121.99638056,47.63407778,15.24 -121.99630748,47.63414832,15.24 -121.99624795,47.63420579,9.14</coordinates></LineString></Placemark></Folder>
<Folder><name>#31 N2-SL2</name><Placemark><name>N2-SL2</name><styleUrl>#w</styleUrl><description><![CDATA[#31 on NEC 40+20+15 m: 33/75 cells, +0.62 dBi, worst -8.5<br/>NEC 40+20 m: #9, 28/50<br/>Analytic (old): #58, 44/75<br/>Sloper up from the transformer (10 ft) to a 68 ft support 116 ft out at 160°M · NEC search, 40+20 m<br/>tree top 42 ft past the south line]]></description><LineString><altitudeMode>relativeToGround</altitudeMode><coordinates>-121.99659167,47.63405833,3.05 -121.99655056,47.63374072,20.70</coordinates></LineString></Placemark></Folder>
<Folder><name>#32 NR-L5</name><Placemark><name>NR-L5</name><styleUrl>#w</styleUrl><description><![CDATA[#32 on NEC 40+20+15 m: 33/75 cells, +0.55 dBi, worst -11.8<br/>NEC 40+20 m: #25, 22/50<br/>Analytic (old): #50, 47/75<br/>Inverted-L from the roof, rising to 71 ft 85 ft out at 77°M, then 33 ft hanging down · NEC search<br/>on the lot]]></description><LineString><altitudeMode>relativeToGround</altitudeMode><coordinates>-121.99673405,47.63396389,7.62 -121.99638808,47.63395490,21.64 -121.99638808,47.63395490,11.58</coordinates></LineString></Placemark></Folder>
<Folder><name>#33 NR-L6</name><Placemark><name>NR-L6</name><styleUrl>#w</styleUrl><description><![CDATA[#33 on NEC 40+20+15 m: 32/75 cells, +0.32 dBi, worst -16.8<br/>NEC 40+20 m: #64, 15/50<br/>Analytic (old): #38, 48/75<br/>Inverted-L from the roof, rising to 59 ft 73 ft out at 7°M, then 49 ft hanging down · NEC search<br/>on the lot]]></description><LineString><altitudeMode>relativeToGround</altitudeMode><coordinates>-121.99673405,47.63396389,7.62 -121.99662062,47.63414983,17.98 -121.99662062,47.63414983,3.05</coordinates></LineString></Placemark></Folder>
<Folder><name>#34 R-V2</name><Placemark><name>R-V2</name><styleUrl>#w</styleUrl><description><![CDATA[#34 on NEC 40+20+15 m: 32/75 cells, +0.96 dBi, worst -7.0<br/>NEC 40+20 m: #40, 18/50<br/>Analytic (old): #11, 54/75<br/>Inverted-V from the roof, apex 50 ft 56 ft out at 334°M, second leg to 3°M<br/>on the lot]]></description><LineString><altitudeMode>relativeToGround</altitudeMode><coordinates>-121.99673405,47.63396389,7.62 -121.99677564,47.63411434,15.24 -121.99670556,47.63426013,3.05</coordinates></LineString></Placemark></Folder>
<Folder><name>#35 NR2-L3</name><Placemark><name>NR2-L3</name><styleUrl>#w</styleUrl><description><![CDATA[#35 on NEC 40+20+15 m: 32/75 cells, +0.67 dBi, worst -13.1<br/>NEC 40+20 m: #21, 23/50<br/>Analytic (old): #37, 49/75<br/>Inverted-L from the roof, rising to 71 ft 85 ft out at 72°M, then 33 ft hanging down · NEC search, 40+20 m<br/>on the lot]]></description><LineString><altitudeMode>relativeToGround</altitudeMode><coordinates>-121.99673405,47.63396389,7.62 -121.99638808,47.63397289,21.64 -121.99638808,47.63397289,11.58</coordinates></LineString></Placemark></Folder>
<Folder><name>#36 S3</name><Placemark><name>S3</name><styleUrl>#w</styleUrl><description><![CDATA[#36 on NEC 40+20+15 m: 31/75 cells, +1.34 dBi, worst -13.5<br/>NEC 40+20 m: #27, 22/50<br/>Analytic (old): #78, 38/75<br/>Straight sloper to a 50 ft TREE, feed 24 ft, bearing 358T<br/>on the lot]]></description><LineString><altitudeMode>relativeToGround</altitudeMode><coordinates>-121.99659167,47.63405833,7.32 -121.99660968,47.63440708,15.24</coordinates></LineString></Placemark></Folder>
<Folder><name>#37 N-V1</name><Placemark><name>N-V1</name><styleUrl>#w</styleUrl><description><![CDATA[#37 on NEC 40+20+15 m: 30/75 cells, +0.63 dBi, worst -9.6<br/>NEC 40+20 m: #43, 17/50<br/>Analytic (old): #75, 39/75<br/>Inverted-V from the transformer, apex 50 ft 51 ft out at 271°M, second leg to 317°M · NEC search<br/>on the lot]]></description><LineString><altitudeMode>relativeToGround</altitudeMode><coordinates>-121.99659167,47.63405833,3.05 -121.99679173,47.63409856,15.24 -121.99688707,47.63422234,3.05</coordinates></LineString></Placemark></Folder>
<Folder><name>#38 S5</name><Placemark><name>S5</name><styleUrl>#w</styleUrl><description><![CDATA[#38 on NEC 40+20+15 m: 30/75 cells, +1.47 dBi, worst -25.0<br/>NEC 40+20 m: #66, 15/50<br/>Analytic (old): #97, 23/75<br/>Straight sloper to a 24 ft PVC mast, feed 24 ft, over the LAWN, bearing 70T<br/>on the lot]]></description><LineString><altitudeMode>relativeToGround</altitudeMode><coordinates>-121.99659167,47.63405833,7.32 -121.99609651,47.63418015,7.32</coordinates></LineString></Placemark></Folder>
<Folder><name>#39 CURRENT</name><Placemark><name>CURRENT</name><styleUrl>#w</styleUrl><description><![CDATA[#39 on NEC 40+20+15 m: 30/75 cells, +0.66 dBi, worst -16.3<br/>NEC 40+20 m: #41, 18/50<br/>Analytic (old): #96, 24/75<br/>AS BUILT - straight sloper, feed 10 ft to a 45 ft end (operator's GPX)<br/>far end 2 ft past the south line]]></description><LineString><altitudeMode>relativeToGround</altitudeMode><coordinates>-121.99659167,47.63405833,3.05 -121.99643170,47.63393438,2.98 -121.99627173,47.63381043,13.72</coordinates></LineString></Placemark></Folder>
<Folder><name>#40 RB-NOTREE</name><Placemark><name>RB-NOTREE</name><styleUrl>#w</styleUrl><description><![CDATA[#40 on NEC 40+20+15 m: 30/75 cells, +0.56 dBi, worst -10.9<br/>NEC 40+20 m: #61, 16/50<br/>Analytic (old): #102, 11/75<br/>NO trees at all - single span, feed 10 ft to a 30 ft post<br/>on the lot]]></description><LineString><altitudeMode>relativeToGround</altitudeMode><coordinates>-121.99659167,47.63405833,3.05 -121.99636346,47.63397793,3.15 -121.99613526,47.63389752,9.14</coordinates></LineString></Placemark></Folder>
<Folder><name>#41 N-V2</name><Placemark><name>N-V2</name><styleUrl>#w</styleUrl><description><![CDATA[#41 on NEC 40+20+15 m: 29/75 cells, +0.45 dBi, worst -9.7<br/>NEC 40+20 m: #72, 14/50<br/>Analytic (old): #64, 42/75<br/>Inverted-V from the transformer, apex 50 ft 49 ft out at 53°M, second leg to 5°M · NEC search<br/>on the lot]]></description><LineString><altitudeMode>relativeToGround</altitudeMode><coordinates>-121.99659167,47.63405833,3.05 -121.99640491,47.63410755,15.24 -121.99633150,47.63424389,3.05</coordinates></LineString></Placemark></Folder>
<Folder><name>#42 N-L1</name><Placemark><name>N-L1</name><styleUrl>#w</styleUrl><description><![CDATA[#42 on NEC 40+20+15 m: 29/75 cells, +0.12 dBi, worst -15.1<br/>NEC 40+20 m: #54, 16/50<br/>Analytic (old): #21, 50/75<br/>Inverted-L from the transformer, rising to 47 ft 89 ft out at 264°M, then 34 ft hanging down · NEC search<br/>on the lot]]></description><LineString><altitudeMode>relativeToGround</altitudeMode><coordinates>-121.99659167,47.63405833,3.05 -121.99694568,47.63409894,14.33 -121.99694568,47.63409894,3.96</coordinates></LineString></Placemark></Folder>
<Folder><name>#43 N-V3</name><Placemark><name>N-V3</name><styleUrl>#w</styleUrl><description><![CDATA[#43 on NEC 40+20+15 m: 28/75 cells, +0.22 dBi, worst -10.6<br/>NEC 40+20 m: #45, 17/50<br/>Analytic (old): #86, 35/75<br/>Inverted-V from the transformer, apex 50 ft 49 ft out at 341°M, second leg to 335°M · NEC search<br/>on the lot]]></description><LineString><altitudeMode>relativeToGround</altitudeMode><coordinates>-121.99659167,47.63405833,3.05 -121.99660497,47.63419325,15.24 -121.99664231,47.63433640,3.05</coordinates></LineString></Placemark></Folder>
<Folder><name>#44 N2-V2</name><Placemark><name>N2-V2</name><styleUrl>#w</styleUrl><description><![CDATA[#44 on NEC 40+20+15 m: 28/75 cells, +0.17 dBi, worst -9.6<br/>NEC 40+20 m: #37, 18/50<br/>Analytic (old): #91, 28/75<br/>Inverted-V from the transformer, apex 50 ft 48 ft out at 46°M, second leg to 42°M · NEC search, 40+20 m<br/>on the lot]]></description><LineString><altitudeMode>relativeToGround</altitudeMode><coordinates>-121.99659167,47.63405833,3.05 -121.99642060,47.63412129,15.24 -121.99623496,47.63420123,3.05</coordinates></LineString></Placemark></Folder>
<Folder><name>#45 V1</name><Placemark><name>V1</name><styleUrl>#w</styleUrl><description><![CDATA[#45 on NEC 40+20+15 m: 28/75 cells, +0.76 dBi, worst -9.6<br/>NEC 40+20 m: #59, 16/50<br/>Analytic (old): #57, 44/75<br/>Inverted-V, ONE tree support at 50 ft, feed 24 ft<br/>on the lot]]></description><LineString><altitudeMode>relativeToGround</altitudeMode><coordinates>-121.99659167,47.63405833,7.32 -121.99638056,47.63407778,15.24 -121.99619716,47.63397375,3.05</coordinates></LineString></Placemark></Folder>
<Folder><name>#46 N-L2</name><Placemark><name>N-L2</name><styleUrl>#w</styleUrl><description><![CDATA[#46 on NEC 40+20+15 m: 28/75 cells, -0.36 dBi, worst -13.1<br/>NEC 40+20 m: #49, 17/50<br/>Analytic (old): #48, 47/75<br/>Inverted-L from the transformer, rising to 45 ft 90 ft out at 115°M, then 33 ft hanging down · NEC search<br/>on the lot]]></description><LineString><altitudeMode>relativeToGround</altitudeMode><coordinates>-121.99659167,47.63405833,3.05 -121.99645249,47.63397868,7.00 -121.99631334,47.63389903,13.72 -121.99631334,47.63389903,3.66</coordinates></LineString></Placemark></Folder>
<Folder><name>#47 R-L3</name><Placemark><name>R-L3</name><styleUrl>#w</styleUrl><description><![CDATA[#47 on NEC 40+20+15 m: 27/75 cells, +0.88 dBi, worst -17.4<br/>NEC 40+20 m: #31, 19/50<br/>Analytic (old): #8, 55/75<br/>Inverted-L from the roof, rising to 68 ft 86 ft out at 352°M, then 34 ft hanging down<br/>on the lot]]></description><LineString><altitudeMode>relativeToGround</altitudeMode><coordinates>-121.99673405,47.63396389,7.62 -121.99668727,47.63419869,20.73 -121.99668727,47.63419869,10.55</coordinates></LineString></Placemark></Folder>
<Folder><name>#48 N2-V1</name><Placemark><name>N2-V1</name><styleUrl>#w</styleUrl><description><![CDATA[#48 on NEC 40+20+15 m: 27/75 cells, +0.16 dBi, worst -17.0<br/>NEC 40+20 m: #36, 18/50<br/>Analytic (old): #67, 42/75<br/>Inverted-V from the transformer, apex 50 ft 49 ft out at 352°M, second leg to 335°M · NEC search, 40+20 m<br/>on the lot]]></description><LineString><altitudeMode>relativeToGround</altitudeMode><coordinates>-121.99659167,47.63405833,3.05 -121.99656801,47.63419106,15.24 -121.99660573,47.63433566,3.05</coordinates></LineString></Placemark></Folder>
<Folder><name>#49 N2-V3</name><Placemark><name>N2-V3</name><styleUrl>#w</styleUrl><description><![CDATA[#49 on NEC 40+20+15 m: 27/75 cells, +0.47 dBi, worst -9.3<br/>NEC 40+20 m: #39, 18/50<br/>Analytic (old): #81, 37/75<br/>Inverted-V from the transformer, apex 50 ft 50 ft out at 150°M, second leg to 85°M · NEC search, 40+20 m<br/>on the lot]]></description><LineString><altitudeMode>relativeToGround</altitudeMode><coordinates>-121.99659167,47.63405833,3.05 -121.99654139,47.63392561,15.24 -121.99633216,47.63390067,3.05</coordinates></LineString></Placemark></Folder>
<Folder><name>#50 S2</name><Placemark><name>S2</name><styleUrl>#w</styleUrl><description><![CDATA[#50 on NEC 40+20+15 m: 27/75 cells, +0.68 dBi, worst -26.2<br/>NEC 40+20 m: #68, 15/50<br/>Analytic (old): #90, 29/75<br/>Straight sloper to a 24 ft PVC mast, feed 24 ft, bearing 355T<br/>on the lot]]></description><LineString><altitudeMode>relativeToGround</altitudeMode><coordinates>-121.99659167,47.63405833,7.32 -121.99663759,47.63441314,7.32</coordinates></LineString></Placemark></Folder>
<Folder><name>#51 N2-L3</name><Placemark><name>N2-L3</name><styleUrl>#w</styleUrl><description><![CDATA[#51 on NEC 40+20+15 m: 27/75 cells, -0.19 dBi, worst -16.6<br/>NEC 40+20 m: #55, 16/50<br/>Analytic (old): #13, 53/75<br/>Inverted-L from the transformer, rising to 46 ft 89 ft out at 257°M, then 34 ft hanging down · NEC search, 40+20 m<br/>on the lot]]></description><LineString><altitudeMode>relativeToGround</altitudeMode><coordinates>-121.99659167,47.63405833,3.05 -121.99677130,47.63406283,7.49 -121.99695094,47.63406733,14.02 -121.99695094,47.63406733,3.66</coordinates></LineString></Placemark></Folder>
<Folder><name>#52 R-V1</name><Placemark><name>R-V1</name><styleUrl>#w</styleUrl><description><![CDATA[#52 on NEC 40+20+15 m: 26/75 cells, +0.51 dBi, worst -7.1<br/>NEC 40+20 m: #42, 18/50<br/>Analytic (old): #16, 52/75<br/>Inverted-V from the roof, apex 50 ft 60 ft out at 3°M, second leg to 328°M<br/>on the lot]]></description><LineString><altitudeMode>relativeToGround</altitudeMode><coordinates>-121.99673405,47.63396389,7.62 -121.99665878,47.63412052,15.24 -121.99671932,47.63425436,3.05</coordinates></LineString></Placemark></Folder>
<Folder><name>#53 R-DN1</name><Placemark><name>R-DN1</name><styleUrl>#w</styleUrl><description><![CDATA[#53 on NEC 40+20+15 m: 26/75 cells, +0.67 dBi, worst -22.0<br/>NEC 40+20 m: #67, 15/50<br/>Analytic (old): #87, 34/75<br/>Sloper DOWN from the roof (25 ft) to a 21 ft end 130 ft out at 339°M<br/>on the lot]]></description><LineString><altitudeMode>relativeToGround</altitudeMode><coordinates>-121.99673405,47.63396389,7.62 -121.99678909,47.63431793,6.40</coordinates></LineString></Placemark></Folder>
<Folder><name>#54 N-L3</name><Placemark><name>N-L3</name><styleUrl>#w</styleUrl><description><![CDATA[#54 on NEC 40+20+15 m: 26/75 cells, -0.03 dBi, worst -12.1<br/>NEC 40+20 m: #71, 14/50<br/>Analytic (old): #41, 48/75<br/>Inverted-L from the transformer, rising to 51 ft 83 ft out at 52°M, then 37 ft hanging down · NEC search<br/>on the lot]]></description><LineString><altitudeMode>relativeToGround</altitudeMode><coordinates>-121.99659167,47.63405833,3.05 -121.99627987,47.63414731,15.54 -121.99627987,47.63414731,4.27</coordinates></LineString></Placemark></Folder>
<Folder><name>#55 SRCH-SL3</name><Placemark><name>SRCH-SL3</name><styleUrl>#w</styleUrl><description><![CDATA[#55 on NEC 40+20+15 m: 25/75 cells, +0.54 dBi, worst -12.2<br/>NEC 40+20 m: #33, 19/50<br/>Analytic (old): #28, 49/75<br/>Sloper up from the transformer (10 ft) to a 87 ft support 105 ft out at 261°M<br/>on the lot]]></description><LineString><altitudeMode>relativeToGround</altitudeMode><coordinates>-121.99659167,47.63405833,3.05 -121.99701381,47.63408832,26.52</coordinates></LineString></Placemark></Folder>
<Folder><name>#56 RB-1TREE</name><Placemark><name>RB-1TREE</name><styleUrl>#w</styleUrl><description><![CDATA[#56 on NEC 40+20+15 m: 25/75 cells, +1.52 dBi, worst -10.6<br/>NEC 40+20 m: #73, 14/50<br/>Analytic (old): #44, 48/75<br/>Apex tree at 50 ft, then ONE post at 30 ft in the staked strip (best found)<br/>on the lot]]></description><LineString><altitudeMode>relativeToGround</altitudeMode><coordinates>-121.99659167,47.63405833,3.05 -121.99638056,47.63407778,15.24 -121.99624836,47.63393799,9.14</coordinates></LineString></Placemark></Folder>
<Folder><name>#57 R-L1</name><Placemark><name>R-L1</name><styleUrl>#w</styleUrl><description><![CDATA[#57 on NEC 40+20+15 m: 25/75 cells, +0.82 dBi, worst -11.0<br/>NEC 40+20 m: #80, 12/50<br/>Analytic (old): #2, 58/75<br/>Inverted-L from the roof, rising to 62 ft 77 ft out at 257°M, then 44 ft hanging down<br/>on the lot]]></description><LineString><altitudeMode>relativeToGround</altitudeMode><coordinates>-121.99673405,47.63396389,7.62 -121.99689040,47.63396839,12.10 -121.99704675,47.63397289,18.90 -121.99704675,47.63397289,5.49</coordinates></LineString></Placemark></Folder>
<Folder><name>#58 N2-L1</name><Placemark><name>N2-L1</name><styleUrl>#w</styleUrl><description><![CDATA[#58 on NEC 40+20+15 m: 24/75 cells, -0.25 dBi, worst -11.0<br/>NEC 40+20 m: #35, 18/50<br/>Analytic (old): #18, 52/75<br/>Inverted-L from the transformer, rising to 56 ft 82 ft out at 334°M, then 36 ft hanging down · NEC search, 40+20 m<br/>on the lot]]></description><LineString><altitudeMode>relativeToGround</altitudeMode><coordinates>-121.99659167,47.63405833,3.05 -121.99665175,47.63427963,17.07 -121.99665175,47.63427963,6.10</coordinates></LineString></Placemark></Folder>
<Folder><name>#59 R-SL3</name><Placemark><name>R-SL3</name><styleUrl>#w</styleUrl><description><![CDATA[#59 on NEC 40+20+15 m: 24/75 cells, +0.02 dBi, worst -13.3<br/>NEC 40+20 m: #46, 17/50<br/>Analytic (old): #29, 49/75<br/>Sloper up from the roof (25 ft) to a 120 ft support 89 ft out at 37°M<br/>on the lot]]></description><LineString><altitudeMode>relativeToGround</altitudeMode><coordinates>-121.99673405,47.63396389,7.62 -121.99645094,47.63411340,36.58</coordinates></LineString></Placemark></Folder>
<Folder><name>#60 V3</name><Placemark><name>V3</name><styleUrl>#w</styleUrl><description><![CDATA[#60 on NEC 40+20+15 m: 24/75 cells, +0.28 dBi, worst -18.5<br/>NEC 40+20 m: #94, 11/50<br/>Analytic (old): #103, 7/75<br/>Inverted-V on a 24 ft PVC mast (symmetric)<br/>on the lot]]></description><LineString><altitudeMode>relativeToGround</altitudeMode><coordinates>-121.99659167,47.63405833,3.05 -121.99634990,47.63399885,7.32 -121.99610815,47.63393938,3.05</coordinates></LineString></Placemark></Folder>
<Folder><name>#61 W-V2</name><Placemark><name>W-V2</name><styleUrl>#w</styleUrl><description><![CDATA[#61 on NEC 40+20+15 m: 23/75 cells, +0.10 dBi, worst -13.1<br/>NEC 40+20 m: #82, 12/50<br/>Analytic (old): #47, 47/75<br/>Inverted-V from the transformer, apex 50 ft 52 ft out at 326°M, second leg to 8°M<br/>on the lot]]></description><LineString><altitudeMode>relativeToGround</altitudeMode><coordinates>-121.99659167,47.63405833,3.05 -121.99665783,47.63419356,15.24 -121.99657795,47.63432077,3.05</coordinates></LineString></Placemark></Folder>
<Folder><name>#62 R-V3</name><Placemark><name>R-V3</name><styleUrl>#w</styleUrl><description><![CDATA[#62 on NEC 40+20+15 m: 23/75 cells, +0.38 dBi, worst -12.1<br/>NEC 40+20 m: #76, 13/50<br/>Analytic (old): #15, 53/75<br/>Inverted-V from the roof, apex 50 ft 61 ft out at 27°M, second leg to 343°M<br/>on the lot]]></description><LineString><altitudeMode>relativeToGround</altitudeMode><coordinates>-121.99673405,47.63396389,7.62 -121.99656678,47.63408792,15.24 -121.99657382,47.63422408,3.05</coordinates></LineString></Placemark></Folder>
<Folder><name>#63 W-V3</name><Placemark><name>W-V3</name><styleUrl>#w</styleUrl><description><![CDATA[#63 on NEC 40+20+15 m: 23/75 cells, +0.08 dBi, worst -8.4<br/>NEC 40+20 m: #63, 15/50<br/>Analytic (old): #36, 49/75<br/>Inverted-V from the transformer, apex 50 ft 51 ft out at 26°M, second leg to 344°M<br/>on the lot]]></description><LineString><altitudeMode>relativeToGround</altitudeMode><coordinates>-121.99659167,47.63405833,3.05 -121.99645481,47.63416408,15.24 -121.99645843,47.63430420,3.05</coordinates></LineString></Placemark></Folder>
<Folder><name>#64 N2-L2</name><Placemark><name>N2-L2</name><styleUrl>#w</styleUrl><description><![CDATA[#64 on NEC 40+20+15 m: 23/75 cells, -0.23 dBi, worst -23.0<br/>NEC 40+20 m: #38, 18/50<br/>Analytic (old): #40, 48/75<br/>Inverted-L from the transformer, rising to 58 ft 84 ft out at 47°M, then 34 ft hanging down · NEC search, 40+20 m<br/>on the lot]]></description><LineString><altitudeMode>relativeToGround</altitudeMode><coordinates>-121.99659167,47.63405833,3.05 -121.99629205,47.63416626,17.68 -121.99629205,47.63416626,7.49</coordinates></LineString></Placemark></Folder>
<Folder><name>#65 SRCH-V2</name><Placemark><name>SRCH-V2</name><styleUrl>#w</styleUrl><description><![CDATA[#65 on NEC 40+20+15 m: 23/75 cells, -0.04 dBi, worst -13.4<br/>NEC 40+20 m: #60, 16/50<br/>Analytic (old): #25, 50/75<br/>Inverted-V from the transformer, apex 50 ft 52 ft out at 3°M, second leg to 333°M<br/>on the lot]]></description><LineString><altitudeMode>relativeToGround</altitudeMode><coordinates>-121.99659167,47.63405833,3.05 -121.99652551,47.63419356,15.24 -121.99656801,47.63432873,3.05</coordinates></LineString></Placemark></Folder>
<Folder><name>#66 F10-A</name><Placemark><name>F10-A</name><styleUrl>#w</styleUrl><description><![CDATA[#66 on NEC 40+20+15 m: 23/75 cells, +0.85 dBi, worst -11.8<br/>NEC 40+20 m: #74, 14/50<br/>Analytic (old): #45, 47/75<br/>Bent flat-top (option A geometry) with the feed at 10 ft<br/>on the lot]]></description><LineString><altitudeMode>relativeToGround</altitudeMode><coordinates>-121.99659167,47.63405833,3.05 -121.99638056,47.63407778,15.24 -121.99628296,47.63402242,15.24 -121.99620344,47.63397732,9.14</coordinates></LineString></Placemark></Folder>
<Folder><name>#67 C-BACK-X</name><Placemark><name>C-BACK-X</name><styleUrl>#w</styleUrl><description><![CDATA[#67 on NEC 40+20+15 m: 22/75 cells, +0.15 dBi, worst -18.5<br/>NEC 40+20 m: #44, 17/50<br/>Analytic (old): #42, 48/75<br/>Sloper, rotation locked to the BACKYARD-corner bearing (155T), parcel IGNORED<br/>tree top 8 ft past the south line]]></description><LineString><altitudeMode>relativeToGround</altitudeMode><coordinates>-121.99659167,47.63405833,7.32 -121.99642355,47.63381625,33.47</coordinates></LineString></Placemark></Folder>
<Folder><name>#68 SRCH-V1</name><Placemark><name>SRCH-V1</name><styleUrl>#w</styleUrl><description><![CDATA[#68 on NEC 40+20+15 m: 22/75 cells, +0.15 dBi, worst -14.9<br/>NEC 40+20 m: #84, 12/50<br/>Analytic (old): #27, 50/75<br/>Inverted-V from the transformer, apex 50 ft 53 ft out at 333°M, second leg to 21°M<br/>on the lot]]></description><LineString><altitudeMode>relativeToGround</altitudeMode><coordinates>-121.99659167,47.63405833,3.05 -121.99663529,47.63420005,15.24 -121.99651718,47.63430995,3.05</coordinates></LineString></Placemark></Folder>
<Folder><name>#69 N-RB20</name><Placemark><name>N-RB20</name><styleUrl>#w</styleUrl><description><![CDATA[#69 on NEC 40+20+15 m: 22/75 cells, +0.91 dBi, worst -10.0<br/>NEC 40+20 m: #86, 12/50<br/>Analytic (old): #52, 46/75<br/>RB-POST20, post re-placed on NEC: 92 ft at 101°M<br/>on the lot]]></description><LineString><altitudeMode>relativeToGround</altitudeMode><coordinates>-121.99659167,47.63405833,3.05 -121.99638056,47.63407778,15.24 -121.99625580,47.63394781,6.15</coordinates></LineString></Placemark></Folder>
<Folder><name>#70 C-FRONT</name><Placemark><name>C-FRONT</name><styleUrl>#w</styleUrl><description><![CDATA[#70 on NEC 40+20+15 m: 21/75 cells, +0.21 dBi, worst -20.8<br/>NEC 40+20 m: #70, 14/50<br/>Analytic (old): #56, 44/75<br/>Sloper, rotation locked to the FRONT-YARD-corner bearing (326T)<br/>on the lot]]></description><LineString><altitudeMode>relativeToGround</altitudeMode><coordinates>-121.99659167,47.63405833,7.32 -121.99679330,47.63425997,36.23</coordinates></LineString></Placemark></Folder>
<Folder><name>#71 G-ROOF</name><Placemark><name>G-ROOF</name><styleUrl>#w</styleUrl><description><![CDATA[#71 on NEC 40+20+15 m: 21/75 cells, -0.08 dBi, worst -10.9<br/>NEC 40+20 m: #47, 17/50<br/>Analytic (old): #30, 49/75<br/>BEST single-support sloper, ROOF feed<br/>on the lot]]></description><LineString><altitudeMode>relativeToGround</altitudeMode><coordinates>-121.99660544,47.63399339,7.62 -121.99633280,47.63414802,36.82</coordinates></LineString></Placemark></Folder>
<Folder><name>#72 V2</name><Placemark><name>V2</name><styleUrl>#w</styleUrl><description><![CDATA[#72 on NEC 40+20+15 m: 21/75 cells, +0.07 dBi, worst -7.8<br/>NEC 40+20 m: #83, 12/50<br/>Analytic (old): #70, 40/75<br/>Inverted-V, ONE tree support at 50 ft, feed 10 ft<br/>on the lot]]></description><LineString><altitudeMode>relativeToGround</altitudeMode><coordinates>-121.99659167,47.63405833,3.05 -121.99638056,47.63407778,15.24 -121.99622575,47.63398998,3.05</coordinates></LineString></Placemark></Folder>
<Folder><name>#73 G-FEED</name><Placemark><name>G-FEED</name><styleUrl>#w</styleUrl><description><![CDATA[#73 on NEC 40+20+15 m: 20/75 cells, -0.18 dBi, worst -10.5<br/>NEC 40+20 m: #48, 17/50<br/>Analytic (old): #31, 49/75<br/>BEST single-support sloper, existing feed<br/>on the lot]]></description><LineString><altitudeMode>relativeToGround</altitudeMode><coordinates>-121.99659167,47.63405833,7.32 -121.99645610,47.63413522,20.90 -121.99632052,47.63421212,36.58</coordinates></LineString></Placemark></Folder>
<Folder><name>#74 RB-POST20</name><Placemark><name>RB-POST20</name><styleUrl>#w</styleUrl><description><![CDATA[#74 on NEC 40+20+15 m: 20/75 cells, +0.84 dBi, worst -9.3<br/>NEC 40+20 m: #87, 12/50<br/>Analytic (old): #46, 47/75<br/>Apex tree at 50 ft, then ONE post at 20 ft in the staked strip (recommended)<br/>on the lot]]></description><LineString><altitudeMode>relativeToGround</altitudeMode><coordinates>-121.99659167,47.63405833,3.05 -121.99648611,47.63406806,8.08 -121.99638056,47.63407778,15.24 -121.99626167,47.63394699,6.10</coordinates></LineString></Placemark></Folder>
<Folder><name>#75 RF-APEX</name><Placemark><name>RF-APEX</name><styleUrl>#w</styleUrl><description><![CDATA[#75 on NEC 40+20+15 m: 19/75 cells, -0.74 dBi, worst -20.5<br/>NEC 40+20 m: #56, 16/50<br/>Analytic (old): #72, 39/75<br/>Sloper to the APEX tree from a ROOF feed<br/>on the lot]]></description><LineString><altitudeMode>relativeToGround</altitudeMode><coordinates>-121.99660544,47.63399339,7.62 -121.99649300,47.63403559,23.41 -121.99638056,47.63407778,42.06</coordinates></LineString></Placemark></Folder>
<Folder><name>#76 R-SL1</name><Placemark><name>R-SL1</name><styleUrl>#w</styleUrl><description><![CDATA[#76 on NEC 40+20+15 m: 19/75 cells, -0.16 dBi, worst -14.6<br/>NEC 40+20 m: #79, 13/50<br/>Analytic (old): #23, 50/75<br/>Sloper up from the roof (25 ft) to a 113 ft support 95 ft out at 185°M<br/>tree top 67 ft past the south line]]></description><LineString><altitudeMode>relativeToGround</altitudeMode><coordinates>-121.99673405,47.63396389,7.62 -121.99686648,47.63371795,34.44</coordinates></LineString></Placemark></Folder>
<Folder><name>#77 W-V1</name><Placemark><name>W-V1</name><styleUrl>#w</styleUrl><description><![CDATA[#77 on NEC 40+20+15 m: 19/75 cells, -0.22 dBi, worst -18.2<br/>NEC 40+20 m: #78, 13/50<br/>Analytic (old): #53, 46/75<br/>Inverted-V from the transformer, apex 50 ft 54 ft out at 2°M, second leg to 320°M<br/>on the lot]]></description><LineString><altitudeMode>relativeToGround</altitudeMode><coordinates>-121.99659167,47.63405833,3.05 -121.99652551,47.63419806,15.24 -121.99660918,47.63431933,3.05</coordinates></LineString></Placemark></Folder>
<Folder><name>#78 R-L2</name><Placemark><name>R-L2</name><styleUrl>#w</styleUrl><description><![CDATA[#78 on NEC 40+20+15 m: 19/75 cells, +0.38 dBi, worst -9.8<br/>NEC 40+20 m: #89, 11/50<br/>Analytic (old): #1, 59/75<br/>Inverted-L from the roof, rising to 67 ft 74 ft out at 272°M, then 44 ft hanging down<br/>on the lot]]></description><LineString><altitudeMode>relativeToGround</altitudeMode><coordinates>-121.99673405,47.63396389,7.62 -121.99687784,47.63399477,12.63 -121.99702164,47.63402565,20.42 -121.99702164,47.63402565,7.01</coordinates></LineString></Placemark></Folder>
<Folder><name>#79 SRCH-L1</name><Placemark><name>SRCH-L1</name><styleUrl>#w</styleUrl><description><![CDATA[#79 on NEC 40+20+15 m: 19/75 cells, -0.10 dBi, worst -13.2<br/>NEC 40+20 m: #85, 12/50<br/>Analytic (old): #3, 58/75<br/>Inverted-L from the transformer, rising to 53 ft 87 ft out at 256°M, then 33 ft hanging down<br/>on the lot]]></description><LineString><altitudeMode>relativeToGround</altitudeMode><coordinates>-121.99659167,47.63405833,3.05 -121.99694429,47.63406283,16.15 -121.99694429,47.63406283,6.10</coordinates></LineString></Placemark></Folder>
<Folder><name>#80 T60</name><Placemark><name>T60</name><styleUrl>#w</styleUrl><description><![CDATA[#80 on NEC 40+20+15 m: 18/75 cells, -0.86 dBi, worst -18.3<br/>NEC 40+20 m: #65, 15/50<br/>Analytic (old): #55, 44/75<br/>Tall sloper, 60 deg slope, top 137 ft, bearing 337T<br/>on the lot]]></description><LineString><altitudeMode>relativeToGround</altitudeMode><coordinates>-121.99659167,47.63405833,7.32 -121.99669429,47.63422173,41.65</coordinates></LineString></Placemark></Folder>
<Folder><name>#81 F10-G</name><Placemark><name>F10-G</name><styleUrl>#w</styleUrl><description><![CDATA[#81 on NEC 40+20+15 m: 18/75 cells, -0.25 dBi, worst -19.7<br/>NEC 40+20 m: #69, 14/50<br/>Analytic (old): #32, 49/75<br/>BEST single-support sloper with a 10 ft feed<br/>on the lot]]></description><LineString><altitudeMode>relativeToGround</altitudeMode><coordinates>-121.99659167,47.63405833,3.05 -121.99651603,47.63416797,16.29 -121.99644040,47.63427761,32.00</coordinates></LineString></Placemark></Folder>
<Folder><name>#82 F10-CF</name><Placemark><name>F10-CF</name><styleUrl>#w</styleUrl><description><![CDATA[#82 on NEC 40+20+15 m: 18/75 cells, -0.32 dBi, worst -17.2<br/>NEC 40+20 m: #77, 13/50<br/>Analytic (old): #63, 42/75<br/>Sloper, feed 10 ft, locked to the FRONT-YARD bearing (326T)<br/>on the lot]]></description><LineString><altitudeMode>relativeToGround</altitudeMode><coordinates>-121.99659167,47.63405833,3.05 -121.99669077,47.63415744,16.63 -121.99678988,47.63425655,32.31</coordinates></LineString></Placemark></Folder>
<Folder><name>#83 T-APEX</name><Placemark><name>T-APEX</name><styleUrl>#w</styleUrl><description><![CDATA[#83 on NEC 40+20+15 m: 17/75 cells, -1.21 dBi, worst -14.8<br/>NEC 40+20 m: #58, 16/50<br/>Analytic (old): #80, 37/75<br/>Tall sloper, 66 deg slope, top 143 ft (existing apex tree)<br/>on the lot]]></description><LineString><altitudeMode>relativeToGround</altitudeMode><coordinates>-121.99659167,47.63405833,7.32 -121.99638056,47.63407778,43.59</coordinates></LineString></Placemark></Folder>
<Folder><name>#84 SRCH-V3</name><Placemark><name>SRCH-V3</name><styleUrl>#w</styleUrl><description><![CDATA[#84 on NEC 40+20+15 m: 17/75 cells, -0.35 dBi, worst -11.8<br/>NEC 40+20 m: #91, 11/50<br/>Analytic (old): #39, 48/75<br/>Inverted-V from the transformer, apex 50 ft 52 ft out at 241°M, second leg to 201°M<br/>on the lot, inside the 5 m setback]]></description><LineString><altitudeMode>relativeToGround</altitudeMode><coordinates>-121.99659167,47.63405833,3.05 -121.99679468,47.63402435,15.24 -121.99691579,47.63391168,3.05</coordinates></LineString></Placemark></Folder>
<Folder><name>#85 F10-APEX</name><Placemark><name>F10-APEX</name><styleUrl>#w</styleUrl><description><![CDATA[#85 on NEC 40+20+15 m: 17/75 cells, -1.62 dBi, worst -15.4<br/>NEC 40+20 m: #62, 16/50<br/>Analytic (old): #79, 37/75<br/>Sloper to the APEX tree, feed 10 ft<br/>on the lot]]></description><LineString><altitudeMode>relativeToGround</altitudeMode><coordinates>-121.99659167,47.63405833,3.05 -121.99638056,47.63407778,39.32</coordinates></LineString></Placemark></Folder>
<Folder><name>#86 T45</name><Placemark><name>T45</name><styleUrl>#w</styleUrl><description><![CDATA[#86 on NEC 40+20+15 m: 17/75 cells, +0.03 dBi, worst -10.8<br/>NEC 40+20 m: #93, 11/50<br/>Analytic (old): #35, 49/75<br/>Tall sloper, 45 deg slope, top 116 ft, bearing 143T<br/>on the lot, inside the 5 m setback]]></description><LineString><altitudeMode>relativeToGround</altitudeMode><coordinates>-121.99659167,47.63405833,7.32 -121.99636743,47.63385720,35.36</coordinates></LineString></Placemark></Folder>
<Folder><name>#87 K-FRONT</name><Placemark><name>K-FRONT</name><styleUrl>#w</styleUrl><description><![CDATA[#87 on NEC 40+20+15 m: 16/75 cells, -0.61 dBi, worst -18.8<br/>NEC 40+20 m: #51, 16/50<br/>Analytic (old): #101, 11/75<br/>Sloper to the FRONT-YARD-corner tree<br/>on the lot]]></description><LineString><altitudeMode>relativeToGround</altitudeMode><coordinates>-121.99659167,47.63405833,7.32 -121.99664437,47.63411104,46.28</coordinates></LineString></Placemark></Folder>
<Folder><name>#88 F10-FRONT</name><Placemark><name>F10-FRONT</name><styleUrl>#w</styleUrl><description><![CDATA[#88 on NEC 40+20+15 m: 16/75 cells, -0.49 dBi, worst -16.4<br/>NEC 40+20 m: #53, 16/50<br/>Analytic (old): #100, 14/75<br/>Sloper to the FRONT-YARD-corner tree, feed 10 ft<br/>on the lot]]></description><LineString><altitudeMode>relativeToGround</altitudeMode><coordinates>-121.99659167,47.63405833,3.05 -121.99664437,47.63411104,42.01</coordinates></LineString></Placemark></Folder>
<Folder><name>#89 W-SL1</name><Placemark><name>W-SL1</name><styleUrl>#w</styleUrl><description><![CDATA[#89 on NEC 40+20+15 m: 16/75 cells, -1.15 dBi, worst -16.6<br/>NEC 40+20 m: #57, 16/50<br/>Analytic (old): #43, 48/75<br/>Sloper up from the transformer (10 ft) to a 98 ft support 95 ft out at 153°M<br/>tree top 17 ft past the south line]]></description><LineString><altitudeMode>relativeToGround</altitudeMode><coordinates>-121.99659167,47.63405833,3.05 -121.99655155,47.63393077,15.07 -121.99651144,47.63380320,29.87</coordinates></LineString></Placemark></Folder>
<Folder><name>#90 C-BACK</name><Placemark><name>C-BACK</name><styleUrl>#w</styleUrl><description><![CDATA[#90 on NEC 40+20+15 m: 16/75 cells, -1.07 dBi, worst -22.5<br/>NEC 40+20 m: #95, 10/50<br/>Analytic (old): #74, 39/75<br/>Sloper, rotation locked to the BACKYARD-corner bearing (155T)<br/>on the lot]]></description><LineString><altitudeMode>relativeToGround</altitudeMode><coordinates>-121.99659167,47.63405833,7.32 -121.99653400,47.63397529,22.88 -121.99647633,47.63389224,41.15</coordinates></LineString></Placemark></Folder>
<Folder><name>#91 BASE</name><Placemark><name>BASE</name><styleUrl>#w</styleUrl><description><![CDATA[#91 on NEC 40+20+15 m: 16/75 cells, -0.18 dBi, worst -11.7<br/>NEC 40+20 m: #100, 7/50<br/>Analytic (old): #84, 35/75<br/>Baseline as first described (feed 10 ft, apex 35 ft)<br/>on the lot]]></description><LineString><altitudeMode>relativeToGround</altitudeMode><coordinates>-121.99659167,47.63405833,3.05 -121.99638056,47.63407778,10.67 -121.99621680,47.63393036,3.05</coordinates></LineString></Placemark></Folder>
<Folder><name>#92 W-L1</name><Placemark><name>W-L1</name><styleUrl>#w</styleUrl><description><![CDATA[#92 on NEC 40+20+15 m: 15/75 cells, -0.73 dBi, worst -14.1<br/>NEC 40+20 m: #90, 11/50<br/>Analytic (old): #14, 53/75<br/>Inverted-L from the transformer, rising to 46 ft 89 ft out at 237°M, then 34 ft hanging down<br/>on the lot]]></description><LineString><altitudeMode>relativeToGround</altitudeMode><coordinates>-121.99659167,47.63405833,3.05 -121.99693593,47.63398427,14.02 -121.99693593,47.63398427,3.66</coordinates></LineString></Placemark></Folder>
<Folder><name>#93 S1</name><Placemark><name>S1</name><styleUrl>#w</styleUrl><description><![CDATA[#93 on NEC 40+20+15 m: 15/75 cells, -0.91 dBi, worst -17.2<br/>NEC 40+20 m: #101, 7/50<br/>Analytic (old): #98, 22/75<br/>Straight sloper to a 24 ft PVC mast, feed 10 ft, bearing 358T<br/>on the lot]]></description><LineString><altitudeMode>relativeToGround</altitudeMode><coordinates>-121.99659167,47.63405833,3.05 -121.99660995,47.63441221,7.32</coordinates></LineString></Placemark></Folder>
<Folder><name>#94 SRCH-L3</name><Placemark><name>SRCH-L3</name><styleUrl>#w</styleUrl><description><![CDATA[#94 on NEC 40+20+15 m: 14/75 cells, -0.97 dBi, worst -13.8<br/>NEC 40+20 m: #81, 12/50<br/>Analytic (old): #5, 57/75<br/>Inverted-L from the transformer, rising to 56 ft 84 ft out at 237°M, then 34 ft hanging down<br/>on the lot]]></description><LineString><altitudeMode>relativeToGround</altitudeMode><coordinates>-121.99659167,47.63405833,3.05 -121.99691677,47.63398734,17.07 -121.99691677,47.63398734,6.71</coordinates></LineString></Placemark></Folder>
<Folder><name>#95 F10-BACK</name><Placemark><name>F10-BACK</name><styleUrl>#w</styleUrl><description><![CDATA[#95 on NEC 40+20+15 m: 14/75 cells, -1.93 dBi, worst -29.0<br/>NEC 40+20 m: #75, 14/50<br/>Analytic (old): #92, 27/75<br/>Sloper to the BACKYARD-corner tree, feed 10 ft<br/>on the lot]]></description><LineString><altitudeMode>relativeToGround</altitudeMode><coordinates>-121.99659167,47.63405833,3.05 -121.99652247,47.63395869,40.71</coordinates></LineString></Placemark></Folder>
<Folder><name>#96 T75</name><Placemark><name>T75</name><styleUrl>#w</styleUrl><description><![CDATA[#96 on NEC 40+20+15 m: 13/75 cells, -1.50 dBi, worst -22.0<br/>NEC 40+20 m: #92, 11/50<br/>Analytic (old): #95, 26/75<br/>Tall sloper, 75 deg slope, top 149 ft, bearing 105T<br/>on the lot]]></description><LineString><altitudeMode>relativeToGround</altitudeMode><coordinates>-121.99659167,47.63405833,7.32 -121.99652580,47.63404641,24.67 -121.99645993,47.63403447,45.41</coordinates></LineString></Placemark></Folder>
<Folder><name>#97 W-L2</name><Placemark><name>W-L2</name><styleUrl>#w</styleUrl><description><![CDATA[#97 on NEC 40+20+15 m: 12/75 cells, -1.00 dBi, worst -15.2<br/>NEC 40+20 m: #98, 8/50<br/>Analytic (old): #22, 50/75<br/>Inverted-L from the transformer, rising to 56 ft 85 ft out at 15°M, then 33 ft hanging down<br/>on the lot]]></description><LineString><altitudeMode>relativeToGround</altitudeMode><coordinates>-121.99659167,47.63405833,3.05 -121.99641868,47.63426085,17.07 -121.99641868,47.63426085,7.01</coordinates></LineString></Placemark></Folder>
<Folder><name>#98 K-BACK</name><Placemark><name>K-BACK</name><styleUrl>#w</styleUrl><description><![CDATA[#98 on NEC 40+20+15 m: 12/75 cells, -2.17 dBi, worst -32.3<br/>NEC 40+20 m: #88, 12/50<br/>Analytic (old): #94, 26/75<br/>Sloper to the BACKYARD-corner tree<br/>on the lot]]></description><LineString><altitudeMode>relativeToGround</altitudeMode><coordinates>-121.99659167,47.63405833,7.32 -121.99652247,47.63395869,44.98</coordinates></LineString></Placemark></Folder>
<Folder><name>#99 F10-CB</name><Placemark><name>F10-CB</name><styleUrl>#w</styleUrl><description><![CDATA[#99 on NEC 40+20+15 m: 11/75 cells, -1.53 dBi, worst -23.2<br/>NEC 40+20 m: #97, 9/50<br/>Analytic (old): #73, 39/75<br/>Sloper, feed 10 ft, locked to the BACKYARD bearing (155T)<br/>on the lot]]></description><LineString><altitudeMode>relativeToGround</altitudeMode><coordinates>-121.99659167,47.63405833,3.05 -121.99647723,47.63389354,37.09</coordinates></LineString></Placemark></Folder>
<Folder><name>#100 W-SL3</name><Placemark><name>W-SL3</name><styleUrl>#w</styleUrl><description><![CDATA[#100 on NEC 40+20+15 m: 11/75 cells, -1.56 dBi, worst -18.1<br/>NEC 40+20 m: #96, 10/50<br/>Analytic (old): #60, 43/75<br/>Sloper up from the transformer (10 ft) to a 116 ft support 75 ft out at 180°M<br/>tree top 5 ft past the south line]]></description><LineString><altitudeMode>relativeToGround</altitudeMode><coordinates>-121.99659167,47.63405833,3.05 -121.99667076,47.63385882,35.31</coordinates></LineString></Placemark></Folder>
<Folder><name>#101 SRCH-L2</name><Placemark><name>SRCH-L2</name><styleUrl>#w</styleUrl><description><![CDATA[#101 on NEC 40+20+15 m: 10/75 cells, -0.82 dBi, worst -11.3<br/>NEC 40+20 m: #102, 4/50<br/>Analytic (old): #6, 56/75<br/>Inverted-L from the transformer, rising to 52 ft 76 ft out at 153°M, then 43 ft hanging down<br/>on the lot, inside the 5 m setback]]></description><LineString><altitudeMode>relativeToGround</altitudeMode><coordinates>-121.99659167,47.63405833,3.05 -121.99656177,47.63395647,8.36 -121.99653187,47.63385461,15.85 -121.99653187,47.63385461,2.74</coordinates></LineString></Placemark></Folder>
<Folder><name>#102 SRCH-SL1</name><Placemark><name>SRCH-SL1</name><styleUrl>#w</styleUrl><description><![CDATA[#102 on NEC 40+20+15 m: 10/75 cells, -1.13 dBi, worst -29.2<br/>NEC 40+20 m: #99, 7/50<br/>Analytic (old): #24, 50/75<br/>Sloper up from the transformer (10 ft) to a 107 ft support 86 ft out at 189°M<br/>tree top 15 ft past the south line]]></description><LineString><altitudeMode>relativeToGround</altitudeMode><coordinates>-121.99659167,47.63405833,3.05 -121.99673401,47.63384224,32.61</coordinates></LineString></Placemark></Folder>
<Folder><name>#103 W-L3</name><Placemark><name>W-L3</name><styleUrl>#w</styleUrl><description><![CDATA[#103 on NEC 40+20+15 m: 8/75 cells, -0.88 dBi, worst -10.8<br/>NEC 40+20 m: #103, 2/50<br/>Analytic (old): #7, 56/75<br/>Inverted-L from the transformer, rising to 52 ft 75 ft out at 155°M, then 43 ft hanging down<br/>on the lot, inside the 5 m setback]]></description><LineString><altitudeMode>relativeToGround</altitudeMode><coordinates>-121.99659167,47.63405833,3.05 -121.99656509,47.63395647,7.95 -121.99653852,47.63385461,15.85 -121.99653852,47.63385461,2.74</coordinates></LineString></Placemark></Folder>
</Document></kml>